start=new Date('2023-01-28T00:00:00.000Z').valueOf();
sats=[{"FILE":"3763218","DECAY_DATE":null,"SITE":"AFWTR","TLE_LINE2":"2 53678  97.6557 270.9787 0001440 102.7492 257.3893 15.01265303 22685","RA_OF_ASC_NODE":"270.9787","APOAPSIS":"563.995","REV_AT_EPOCH":"2268","MEAN_MOTION":"15.01265303","INCLINATION":"97.6557","LAUNCH_DATE":"2022-08-31","COUNTRY_CODE":"US","EPHEMERIS_TYPE":"0","BSTAR":"0.00014730000000","REF_FRAME":"TEME","OBJECT_NAME":"STARLINK-4418","SEMIMAJOR_AXIS":"6941.131","PERIAPSIS":"561.996","CLASSIFICATION_TYPE":"U","MEAN_MOTION_DOT":"0.00001834","RCS_SIZE":"LARGE","GP_ID":"223839998","EPOCH":"2023-01-27T21:49:10.008768","ECCENTRICITY":"0.00014400","ARG_OF_PERICENTER":"102.7492","MEAN_MOTION_DDOT":"0.0000000000000","TLE_LINE1":"1 53678U 22105AG  23027.90914362  .00001834  00000-0  14730-3 0  9991","ELEMENT_SET_NO":"999","PERIOD":"95.919","CENTER_NAME":"EARTH","TIME_SYSTEM":"UTC","MEAN_ELEMENT_THEORY":"SGP4","OBJECT_ID":"2022-105AG","NORAD_CAT_ID":"53678","MEAN_ANOMALY":"257.3893","OBJECT_TYPE":"PAYLOAD"},{"GP_ID":"223840745","MEAN_MOTION_DOT":"-0.00000297","RCS_SIZE":"LARGE","CLASSIFICATION_TYPE":"U","NORAD_CAT_ID":"53679","MEAN_ANOMALY":"260.9270","OBJECT_TYPE":"PAYLOAD","TIME_SYSTEM":"UTC","MEAN_ELEMENT_THEORY":"SGP4","OBJECT_ID":"2022-105AH","TLE_LINE1":"1 53679U 22105AH  23027.91284656 -.00000297  00000-0 -18532-4 0  9998","PERIOD":"95.919","ELEMENT_SET_NO":"999","CENTER_NAME":"EARTH","EPOCH":"2023-01-27T21:54:29.942784","ARG_OF_PERICENTER":"99.2111","ECCENTRICITY":"0.00013930","MEAN_MOTION_DDOT":"0.0000000000000","MEAN_MOTION":"15.01266635","INCLINATION":"97.6570","LAUNCH_DATE":"2022-08-31","APOAPSIS":"563.958","REV_AT_EPOCH":"2268","TLE_LINE2":"2 53679  97.6570 270.9816 0001393  99.2111 260.9270 15.01266635 22687","SITE":"AFWTR","RA_OF_ASC_NODE":"270.9816","FILE":"3763218","DECAY_DATE":null,"OBJECT_NAME":"STARLINK-4632","SEMIMAJOR_AXIS":"6941.126","PERIAPSIS":"562.024","EPHEMERIS_TYPE":"0","BSTAR":"-0.00001853200000","REF_FRAME":"TEME","COUNTRY_CODE":"US"},{"PERIAPSIS":"562.024","OBJECT_NAME":"STARLINK-4630","SEMIMAJOR_AXIS":"6941.137","COUNTRY_CODE":"US","BSTAR":"0.00005135500000","REF_FRAME":"TEME","EPHEMERIS_TYPE":"0","APOAPSIS":"563.980","REV_AT_EPOCH":"2268","LAUNCH_DATE":"2022-08-31","INCLINATION":"97.6563","MEAN_MOTION":"15.01263269","DECAY_DATE":null,"FILE":"3763218","TLE_LINE2":"2 53680  97.6563 270.9749 0001409  95.5107 264.6278 15.01263269 22687","SITE":"AFWTR","RA_OF_ASC_NODE":"270.9749","OBJECT_ID":"2022-105AJ","TIME_SYSTEM":"UTC","MEAN_ELEMENT_THEORY":"SGP4","MEAN_ANOMALY":"264.6278","OBJECT_TYPE":"PAYLOAD","NORAD_CAT_ID":"53680","ECCENTRICITY":"0.00014090","ARG_OF_PERICENTER":"95.5107","MEAN_MOTION_DDOT":"0.0000000000000","EPOCH":"2023-01-27T21:43:50.010816","CENTER_NAME":"EARTH","TLE_LINE1":"1 53680U 22105AJ  23027.90543994  .00000601  00000-0  51355-4 0  9999","PERIOD":"95.919","ELEMENT_SET_NO":"999","RCS_SIZE":"LARGE","MEAN_MOTION_DOT":"0.00000601","GP_ID":"223841490","CLASSIFICATION_TYPE":"U"},{"COUNTRY_CODE":"US","EPHEMERIS_TYPE":"0","BSTAR":"0.00030800000000","REF_FRAME":"TEME","OBJECT_NAME":"STARLINK-4424","SEMIMAJOR_AXIS":"6941.139","PERIAPSIS":"561.827","FILE":"3763218","DECAY_DATE":null,"SITE":"AFWTR","TLE_LINE2":"2 53681  97.6543 270.7127 0001696  60.9214 299.2180 15.01262565 22647","RA_OF_ASC_NODE":"270.7127","APOAPSIS":"564.181","REV_AT_EPOCH":"2264","INCLINATION":"97.6543","MEAN_MOTION":"15.01262565","LAUNCH_DATE":"2022-08-31","EPOCH":"2023-01-27T15:25:35.260608","ECCENTRICITY":"0.00016960","ARG_OF_PERICENTER":"60.9214","MEAN_MOTION_DDOT":"0.0000000000000","TLE_LINE1":"1 53681U 22105AK  23027.64276922  .00003900  00000-0  30800-3 0  9991","PERIOD":"95.919","ELEMENT_SET_NO":"999","CENTER_NAME":"EARTH","MEAN_ELEMENT_THEORY":"SGP4","TIME_SYSTEM":"UTC","OBJECT_ID":"2022-105AK","NORAD_CAT_ID":"53681","MEAN_ANOMALY":"299.2180","OBJECT_TYPE":"PAYLOAD","CLASSIFICATION_TYPE":"U","MEAN_MOTION_DOT":"0.00003900","RCS_SIZE":"LARGE","GP_ID":"223840247"},{"RA_OF_ASC_NODE":"270.9064","SITE":"AFWTR","TLE_LINE2":"2 53682  97.6561 270.9064 0001584  90.1240 270.0166 15.01270543 22679","DECAY_DATE":null,"FILE":"3763218","LAUNCH_DATE":"2022-08-31","INCLINATION":"97.6561","MEAN_MOTION":"15.01270543","APOAPSIS":"564.079","REV_AT_EPOCH":"2267","REF_FRAME":"TEME","BSTAR":"0.00026879000000","EPHEMERIS_TYPE":"0","COUNTRY_CODE":"US","PERIAPSIS":"561.880","SEMIMAJOR_AXIS":"6941.114","OBJECT_NAME":"STARLINK-4438","CLASSIFICATION_TYPE":"U","GP_ID":"223840496","RCS_SIZE":"LARGE","MEAN_MOTION_DOT":"0.00003396","CENTER_NAME":"EARTH","PERIOD":"95.919","ELEMENT_SET_NO":"999","TLE_LINE1":"1 53682U 22105AL  23027.83532660  .00003396  00000-0  26879-3 0  9997","MEAN_MOTION_DDOT":"0.0000000000000","ARG_OF_PERICENTER":"90.1240","ECCENTRICITY":"0.00015840","EPOCH":"2023-01-27T20:02:52.218240","OBJECT_TYPE":"PAYLOAD","MEAN_ANOMALY":"270.0166","NORAD_CAT_ID":"53682","OBJECT_ID":"2022-105AL","MEAN_ELEMENT_THEORY":"SGP4","TIME_SYSTEM":"UTC"},{"CENTER_NAME":"EARTH","PERIOD":"95.920","ELEMENT_SET_NO":"999","TLE_LINE1":"1 53683U 22105AM  23027.64068755 -.00000497  00000-0 -34082-4 0  9993","MEAN_MOTION_DDOT":"0.0000000000000","ECCENTRICITY":"0.00014860","ARG_OF_PERICENTER":"101.0638","EPOCH":"2023-01-27T15:22:35.404320","OBJECT_TYPE":"PAYLOAD","MEAN_ANOMALY":"259.0754","NORAD_CAT_ID":"53683","OBJECT_ID":"2022-105AM","TIME_SYSTEM":"UTC","MEAN_ELEMENT_THEORY":"SGP4","CLASSIFICATION_TYPE":"U","GP_ID":"223841242","RCS_SIZE":"LARGE","MEAN_MOTION_DOT":"-0.00000497","REF_FRAME":"TEME","BSTAR":"-0.00003408200000","EPHEMERIS_TYPE":"0","COUNTRY_CODE":"US","PERIAPSIS":"561.995","SEMIMAJOR_AXIS":"6941.161","OBJECT_NAME":"STARLINK-4625","RA_OF_ASC_NODE":"270.7165","SITE":"AFWTR","TLE_LINE2":"2 53683  97.6558 270.7165 0001486 101.0638 259.0754 15.01255353 22649","DECAY_DATE":null,"FILE":"3763218","LAUNCH_DATE":"2022-08-31","INCLINATION":"97.6558","MEAN_MOTION":"15.01255353","APOAPSIS":"564.058","REV_AT_EPOCH":"2264"},{"CLASSIFICATION_TYPE":"U","MEAN_MOTION_DOT":"-0.00000445","RCS_SIZE":"LARGE","GP_ID":"223840994","EPOCH":"2023-01-27T16:29:35.077920","MEAN_MOTION_DDOT":"0.0000000000000","ECCENTRICITY":"0.00023160","ARG_OF_PERICENTER":"91.1078","PERIOD":"95.919","ELEMENT_SET_NO":"999","TLE_LINE1":"1 53684U 22105AN  23027.68721155 -.00000445  00000-0 -30046-4 0  9997","CENTER_NAME":"EARTH","MEAN_ELEMENT_THEORY":"SGP4","TIME_SYSTEM":"UTC","OBJECT_ID":"2022-105AN","NORAD_CAT_ID":"53684","OBJECT_TYPE":"PAYLOAD","MEAN_ANOMALY":"269.0411","FILE":"3763218","DECAY_DATE":null,"RA_OF_ASC_NODE":"270.7760","TLE_LINE2":"2 53684  97.6587 270.7760 0002316  91.1078 269.0411 15.01270720 22649","SITE":"AFWTR","APOAPSIS":"564.586","REV_AT_EPOCH":"2264","INCLINATION":"97.6587","MEAN_MOTION":"15.01270720","LAUNCH_DATE":"2022-08-31","COUNTRY_CODE":"US","EPHEMERIS_TYPE":"0","REF_FRAME":"TEME","BSTAR":"-0.00003004600000","SEMIMAJOR_AXIS":"6941.114","OBJECT_NAME":"STARLINK-4624","PERIAPSIS":"561.371"},{"MEAN_MOTION":"15.01267014","INCLINATION":"97.6560","LAUNCH_DATE":"2022-08-31","APOAPSIS":"564.030","REV_AT_EPOCH":"2268","RA_OF_ASC_NODE":"270.9740","SITE":"AFWTR","TLE_LINE2":"2 53685  97.6560 270.9740 0001498  99.4418 260.6975 15.01267014 22688","FILE":"3763218","DECAY_DATE":null,"SEMIMAJOR_AXIS":"6941.125","OBJECT_NAME":"STARLINK-4626","PERIAPSIS":"561.950","EPHEMERIS_TYPE":"0","REF_FRAME":"TEME","BSTAR":"0.00015464000000","COUNTRY_CODE":"US","GP_ID":"223839751","MEAN_MOTION_DOT":"0.00001928","RCS_SIZE":"LARGE","CLASSIFICATION_TYPE":"U","NORAD_CAT_ID":"53685","OBJECT_TYPE":"PAYLOAD","MEAN_ANOMALY":"260.6975","TIME_SYSTEM":"UTC","MEAN_ELEMENT_THEORY":"SGP4","OBJECT_ID":"2022-105AP","PERIOD":"95.919","ELEMENT_SET_NO":"999","TLE_LINE1":"1 53685U 22105AP  23027.90358805  .00001928  00000-0  15464-3 0  9992","CENTER_NAME":"EARTH","EPOCH":"2023-01-27T21:41:10.007520","MEAN_MOTION_DDOT":"0.0000000000000","ARG_OF_PERICENTER":"99.4418","ECCENTRICITY":"0.00014980"},{"CLASSIFICATION_TYPE":"U","MEAN_MOTION_DOT":"0.00000859","RCS_SIZE":"LARGE","GP_ID":"223839999","EPOCH":"2023-01-27T19:59:51.214560","ARG_OF_PERICENTER":"93.9992","ECCENTRICITY":"0.00016100","MEAN_MOTION_DDOT":"0.0000000000000","TLE_LINE1":"1 53686U 22105AQ  23027.83323165  .00000859  00000-0  71455-4 0  9991","PERIOD":"95.919","ELEMENT_SET_NO":"999","CENTER_NAME":"EARTH","MEAN_ELEMENT_THEORY":"SGP4","TIME_SYSTEM":"UTC","OBJECT_ID":"2022-105AQ","NORAD_CAT_ID":"53686","MEAN_ANOMALY":"266.1416","OBJECT_TYPE":"PAYLOAD","FILE":"3763218","DECAY_DATE":null,"SITE":"AFWTR","TLE_LINE2":"2 53686  97.6567 270.9038 0001610  93.9992 266.1416 15.01264636 22675","RA_OF_ASC_NODE":"270.9038","APOAPSIS":"564.115","REV_AT_EPOCH":"2267","INCLINATION":"97.6567","MEAN_MOTION":"15.01264636","LAUNCH_DATE":"2022-08-31","COUNTRY_CODE":"US","EPHEMERIS_TYPE":"0","BSTAR":"0.00007145500000","REF_FRAME":"TEME","OBJECT_NAME":"STARLINK-4467","SEMIMAJOR_AXIS":"6941.133","PERIAPSIS":"561.880"},{"COUNTRY_CODE":"US","EPHEMERIS_TYPE":"0","REF_FRAME":"TEME","BSTAR":"0.00008728900000","SEMIMAJOR_AXIS":"6941.146","OBJECT_NAME":"STARLINK-4569","PERIAPSIS":"561.861","FILE":"3763218","DECAY_DATE":null,"RA_OF_ASC_NODE":"270.7087","TLE_LINE2":"2 53687  97.6559 270.7087 0001657  93.0131 267.1282 15.01260337 22649","SITE":"AFWTR","APOAPSIS":"564.161","REV_AT_EPOCH":"2264","INCLINATION":"97.6559","MEAN_MOTION":"15.01260337","LAUNCH_DATE":"2022-08-31","EPOCH":"2023-01-27T15:14:35.118816","MEAN_MOTION_DDOT":"0.0000000000000","ARG_OF_PERICENTER":"93.0131","ECCENTRICITY":"0.00016570","ELEMENT_SET_NO":"999","PERIOD":"95.919","TLE_LINE1":"1 53687U 22105AR  23027.63512869  .00001062  00000-0  87289-4 0  9990","CENTER_NAME":"EARTH","MEAN_ELEMENT_THEORY":"SGP4","TIME_SYSTEM":"UTC","OBJECT_ID":"2022-105AR","NORAD_CAT_ID":"53687","OBJECT_TYPE":"PAYLOAD","MEAN_ANOMALY":"267.1282","CLASSIFICATION_TYPE":"U","MEAN_MOTION_DOT":"0.00001062","RCS_SIZE":"LARGE","GP_ID":"223840746"}];
